STARLINK-4542           
1 53435U 22097AZ  26068.80252729 -.00000377  00000+0 -56216-5 0  9990
2 53435  53.2163 103.4146 0001122  89.4077 270.7043 15.08841284198789
YAM-8                   
1 63254U 25052AW  26068.73092778  .00007810  00000+0  47267-3 0  9993
2 63254  97.7023 329.5345 0002369 152.6796 207.4558 15.10898938 54245
